NORAD_CAT_ID,OBJECT_NAME,OBJECT_TYPE,EPOCH,MEAN_MOTION,ECCENTRICITY,INCLINATION,RA_OF_ASC_NODE,ARG_OF_PERICENTER,MEAN_ANOMALY,BSTAR,MEAN_MOTION_DOT,MEAN_MOTION_DDOT,TLE_LINE0,TLE_LINE1,TLE_LINE2,SEMIMAJOR_AXIS,PERIOD,APOGEE,PERIGEE,DECAYED
52265.0,STARLINK-3740,PAYLOAD,2023-09-19 05:59:44,15.08867462,0.0001383,53.2163,200.3299,87.1678,272.9472,0.00083504,0.00013037,0.0,0 STARLINK-3740,1 52265U 22041E   23262.24982045  .00013037  00000-0  83504-3 0  9995,2 52265  53.2163 200.3299 0001383  87.1678 272.9472 15.08867462 79342,6917.796,95.436,540.618,538.705,0.0
52265.0,STARLINK-3740,PAYLOAD,2023-09-20 02:39:45,15.08854946,0.0001456,53.2164,196.4639,91.3799,268.736,0.0011042,0.00017336,0.0,0 STARLINK-3740,1 52265U 22041E   23263.11094227  .00017336  00000-0  11042-2 0  9991,2 52265  53.2164 196.4639 0001456  91.3799 268.7360 15.08854946 79474,6917.835,95.437,540.707,538.692,0.0
52265.0,STARLINK-3740,PAYLOAD,2023-09-20 12:12:04,15.0884606,0.0001595,53.2162,194.6804,81.8533,278.264,0.00047773,7.324e-05,0.0,0 STARLINK-3740,1 52265U 22041E   23263.50838408  .00007324  00000-0  47773-3 0  9998,2 52265  53.2162 194.6804 0001595  81.8533 278.2640 15.08846060 79532,6917.862,95.437,540.83,538.623,0.0
52265.0,STARLINK-3740,PAYLOAD,2023-09-20 20:09:00,15.08830436,0.0002876,53.2159,193.195,83.6578,276.4742,0.00051816,7.966e-05,0.0,0 STARLINK-3740,1 52265U 22041E   23263.83959382  .00007966  00000-0  51816-3 0  9994,2 52265  53.2159 193.1950 0002876  83.6578 276.4742 15.08830436 78369,6917.91,95.438,541.764,537.785,0.0
52265.0,STARLINK-3740,PAYLOAD,2023-09-21 00:55:10,15.08812731,0.0001768,53.2176,192.308,108.696,251.4224,-0.00031984,-5.371e-05,0.0,0 STARLINK-3740,1 52265U 22041E   23264.03831711 -.00005371  00000-0 -31984-3 0  9996,2 52265  53.2176 192.3080 0001768 108.6960 251.4224 15.08812731 79610,6917.964,95.439,541.052,538.606,0.0
52265.0,STARLINK-3740,PAYLOAD,2023-09-21 04:05:57,15.08813534,0.0001776,53.2177,191.7132,109.0161,251.1023,-5.5999e-05,-1.179e-05,0.0,0 STARLINK-3740,1 52265U 22041E   23264.17079981 -.00001179  00000-0 -55999-4 0  9999,2 52265  53.2177 191.7132 0001776 109.0161 251.1023 15.08813534 78412,6917.961,95.439,541.055,538.598,0.0
52265.0,STARLINK-3740,PAYLOAD,2023-09-22 03:56:44,15.08868935,0.0001308,53.2149,187.2477,93.388,266.7261,0.0016856,0.00026661,0.0,0 STARLINK-3740,1 52265U 22041E   23265.16439824  .00026661  00000-0  16856-2 0  9993,2 52265  53.2149 187.2477 0001308  93.3880 266.7261 15.08868935 79789,6917.792,95.436,540.562,538.752,0.0
52265.0,STARLINK-3740,PAYLOAD,2023-09-22 05:32:07,15.08873457,0.0001292,53.2147,186.9501,93.2527,266.8613,0.0017426,0.0002758,0.0,0 STARLINK-3740,1 52265U 22041E   23265.23063672  .00027580  00000-0  17426-2 0  9990,2 52265  53.2147 186.9501 0001292  93.2527 266.8613 15.08873457 78573,6917.778,95.435,540.537,538.749,0.0
52265.0,STARLINK-3740,PAYLOAD,2023-09-23 00:36:44,15.08865088,0.0001303,53.2149,183.3812,76.1694,283.9443,0.00085,0.00013275,0.0,0 STARLINK-3740,1 52265U 22041E   23266.02551501  .00013275  00000-0  85000-3 0  9991,2 52265  53.2149 183.3812 0001303  76.1694 283.9443 15.08865088 79910,6917.804,95.436,540.57,538.767,0.0
52265.0,STARLINK-3740,PAYLOAD,2023-09-23 03:47:30,15.08865414,0.0001376,53.2146,182.7858,90.9596,269.1554,0.00089098,0.0001393,0.0,0 STARLINK-3740,1 52265U 22041E   23266.15799314  .00013930  00000-0  89098-3 0  9990,2 52265  53.2146 182.7858 0001376  90.9596 269.1554 15.08865414 78714,6917.803,95.436,540.62,538.716,0.0
52265.0,STARLINK-3740,PAYLOAD,2023-09-23 18:05:59,15.08838141,0.0001234,53.2145,180.1097,93.6105,266.5028,0.0014221,0.00022416,0.0,0 STARLINK-3740,1 52265U 22041E   23266.75415747  .00022416  00000-0  14221-2 0  9995,2 52265  53.2145 180.1097 0001234  93.6105 266.5028 15.08838141 80020,6917.886,95.438,540.605,538.897,0.0
52265.0,STARLINK-3740,PAYLOAD,2023-09-24 03:38:17,15.08857935,0.0001285,53.2148,178.3258,90.4447,269.6693,0.0013084,0.00020607,0.0,0 STARLINK-3740,1 52265U 22041E   23267.15159388  .00020607  00000-0  13084-2 0  9992,2 52265  53.2148 178.3258 0001285  90.4447 269.6693 15.08857935 78864,6917.826,95.436,540.58,538.802,0.0
52265.0,STARLINK-3740,PAYLOAD,2023-09-24 17:56:46,15.08843245,0.0001637,53.2156,175.6501,84.5337,275.5841,0.00094336,0.00014759,0.0,0 STARLINK-3740,1 52265U 22041E   23267.74776055  .00014759  00000-0  94336-3 0  9994,2 52265  53.2156 175.6501 0001637  84.5337 275.5841 15.08843245 80174,6917.87,95.437,540.868,538.603,0.0
52265.0,STARLINK-3740,PAYLOAD,2023-09-24 22:42:55,15.08835796,0.0001707,53.2167,174.7581,96.1089,264.0098,0.00076784,0.00011952,0.0,0 STARLINK-3740,1 52265U 22041E   23267.94648085  .00011952  00000-0  76784-3 0  9996,2 52265  53.2167 174.7581 0001707  96.1089 264.0098 15.08835796 78980,6917.893,95.438,540.939,538.577,0.0
52265.0,STARLINK-3740,PAYLOAD,2023-09-25 00:18:19,15.08838408,0.000176,53.2165,174.4606,89.5665,270.5529,0.00060395,9.336e-05,0.0,0 STARLINK-3740,1 52265U 22041E   23268.01272109  .00009336  00000-0  60395-3 0  9999,2 52265  53.2165 174.4606 0001760  89.5665 270.5529 15.08838408 80211,6917.885,95.438,540.968,538.533,0.0
52265.0,STARLINK-3740,PAYLOAD,2023-09-25 11:26:00,15.08855829,0.0001575,53.2157,172.3788,87.0318,273.0854,0.00094033,0.00014715,0.0,0 STARLINK-3740,1 52265U 22041E   23268.47639725  .00014715  00000-0  94033-3 0  9993,2 52265  53.2157 172.3788 0001575  87.0318 273.0854 15.08855829 79068,6917.832,95.437,540.787,538.607,0.0
52265.0,STARLINK-3740,PAYLOAD,2023-09-25 20:58:19,15.08866429,0.0001497,53.2156,170.5944,90.3265,269.7898,0.00090259,0.00014116,0.0,0 STARLINK-3740,1 52265U 22041E   23268.87383112  .00014116  00000-0  90259-3 0  9994,2 52265  53.2156 170.5944 0001497  90.3265 269.7898 15.08866429 80343,6917.8,95.436,540.7,538.629,0.0
52265.0,STARLINK-3740,PAYLOAD,2023-09-26 00:09:04,15.08874759,0.0001471,53.2161,169.9996,95.4238,264.6922,0.001075,0.00016878,0.0,0 STARLINK-3740,1 52265U 22041E   23269.00630735  .00016878  00000-0  10750-2 0  9990,2 52265  53.2161 169.9996 0001471  95.4238 264.6922 15.08874759 79149,6917.774,95.435,540.657,538.622,0.0
52265.0,STARLINK-3740,PAYLOAD,2023-09-26 20:49:07,15.08823051,0.0001562,53.2165,166.1337,88.1695,271.9476,0.00015083,2.112e-05,0.0,0 STARLINK-3740,1 52265U 22041E   23269.86744705  .00002112  00000-0  15083-3 0  9998,2 52265  53.2165 166.1337 0001562  88.1695 271.9476 15.08823051 79276,6917.932,95.439,540.878,538.717,0.0
52265.0,STARLINK-3740,PAYLOAD,2023-09-26 22:24:30,15.08821671,0.0001664,53.2168,165.8361,104.8706,255.247,0.00015173,2.126e-05,0.0,0 STARLINK-3740,1 52265U 22041E   23269.93368745  .00002126  00000-0  15173-3 0  9997,2 52265  53.2168 165.8361 0001664 104.8706 255.2470 15.08821671 80507,6917.936,95.439,540.953,538.65,0.0
52265.0,STARLINK-3740,PAYLOAD,2023-09-27 09:32:13,15.08818856,0.0001659,53.2158,163.7546,92.6957,267.4225,0.00066996,0.00010384,0.0,0 STARLINK-3740,1 52265U 22041E   23270.39737868  .00010384  00000-0  66996-3 0  9999,2 52265  53.2158 163.7546 0001659  92.6957 267.4225 15.08818856 79359,6917.945,95.439,540.958,538.662,0.0
52265.0,STARLINK-3740,PAYLOAD,2023-09-27 23:50:41,15.08848958,0.0001588,53.2159,161.0781,87.8579,272.2595,0.0011182,0.00017557,0.0,0 STARLINK-3740,1 52265U 22041E   23270.99353753  .00017557  00000-0  11182-2 0  9997,2 52265  53.2159 161.0781 0001588  87.8579 272.2595 15.08848958 80665,6917.853,95.437,540.817,538.619,0.0
52265.0,STARLINK-3740,PAYLOAD,2023-09-28 17:19:55,15.08858105,0.000158,53.2155,157.8071,87.7428,272.3745,0.00055728,8.597e-05,0.0,0 STARLINK-3740,1 52265U 22041E   23271.72217207  .00008597  00000-0  55728-3 0  9991,2 52265  53.2155 157.8071 0001580  87.7428 272.3745 15.08858105 80775,6917.825,95.436,540.783,538.597,0.0
52265.0,STARLINK-3740,PAYLOAD,2023-09-28 22:06:04,15.08863324,0.0001564,53.2154,156.915,88.1166,272.0006,0.00064311,9.968e-05,0.0,0 STARLINK-3740,1 52265U 22041E   23271.92088908  .00009968  00000-0  64311-3 0  9998,2 52265  53.2154 156.9150 0001564  88.1166 272.0006 15.08863324 79581,6917.809,95.436,540.756,538.592,0.0
52265.0,STARLINK-3740,PAYLOAD,2023-09-29 02:52:13,15.08865398,0.0001637,53.2156,156.0222,92.0005,268.1175,0.00053681,8.272e-05,0.0,0 STARLINK-3740,1 52265U 22041E   23272.11960513  .00008272  00000-0  53681-3 0  9996,2 52265  53.2156 156.0222 0001637  92.0005 268.1175 15.08865398 79611,6917.803,95.436,540.8,538.535,0.0
52265.0,STARLINK-3740,PAYLOAD,2023-09-29 23:32:14,15.08855019,0.0001613,53.2158,152.1529,90.9371,269.1806,0.00015305,2.15e-05,0.0,0 STARLINK-3740,1 52265U 22041E   23272.98071972  .00002150  00000-0  15305-3 0  9993,2 52265  53.2158 152.1529 0001613  90.9371 269.1806 15.08855019 80968,6917.834,95.437,540.815,538.584,0.0
52265.0,STARLINK-3740,PAYLOAD,2023-09-30 09:04:33,15.08845488,0.0001361,53.2155,150.3734,97.0486,263.0661,-3.6754e-05,-8.73e-06,0.0,0 STARLINK-3740,1 52265U 22041E   23273.37816115 -.00000873  00000-0 -36754-4 0  9997,2 52265  53.2155 150.3734 0001361  97.0486 263.0661 15.08845488 81027,6917.864,95.437,540.67,538.787,0.0
52265.0,STARLINK-3740,PAYLOAD,2023-09-30 23:23:01,15.08838711,0.0001552,53.2151,147.6957,92.4719,267.6451,-9.0358e-05,-1.726e-05,0.0,0 STARLINK-3740,1 52265U 22041E   23273.97432468 -.00001726  00000-0 -90358-4 0  9996,2 52265  53.2151 147.6957 0001552  92.4719 267.6451 15.08838711 81117,6917.884,95.438,540.823,538.676,0.0
52265.0,STARLINK-3740,PAYLOAD,2023-10-01 08:55:20,15.08842735,0.0001563,53.2152,145.9118,94.7965,265.3205,0.00010626,1.404e-05,0.0,0 STARLINK-3740,1 52265U 22041E   23274.37176465  .00001404  00000-0  10626-3 0  9993,2 52265  53.2152 145.9118 0001563  94.7965 265.3205 15.08842735 79950,6917.872,95.437,540.818,538.656,0.0
52265.0,STARLINK-3740,PAYLOAD,2023-10-01 21:38:25,15.0885203,0.000129,53.2139,143.534,98.2051,261.9087,0.00045448,6.955e-05,0.0,0 STARLINK-3740,1 52265U 22041E   23274.90168280  .00006955  00000-0  45448-3 0  9994,2 52265  53.2139 143.5340 0001290  98.2051 261.9087 15.08852030 80038,6917.844,95.437,540.601,538.816,0.0
